     3.03           N                   C                   RINEX VERSION / TYPE
Alloy 5.45          RIGTC, GO PECNY     20210716 123105 UTC PGM / RUN BY / DATE 
BDSA    .8382D-08   .1490D-07  -.2384D-06   .4172D-06       IONOSPHERIC CORR    
BDSB    .9830D+05   .4424D+06  -.1573D+07   .9830D+06       IONOSPHERIC CORR    
BDUT  -.4656612873D-08  .195399252D-13     14  810          TIME SYSTEM CORR    
    18    18  2185     7                                    LEAP SECONDS        
NAVIGATION DATA FROM STATION GOPE (RIGTC, GO PECNY)         COMMENT             
                                                            END OF HEADER       
C05 2021 07 16 12 00 00 -.430487561971D-04  .166640035104D-10  .000000000000D+00
      .100000000000D+01 -.624468750000D+03 -.134541318472D-08  .221729936870D+01
     -.200970098376D-04  .768205500208D-03 -.978354364634D-05  .649347458649D+04
      .475200000000D+06  .563450157642D-07  .388632230881D+00 -.614672899246D-07
      .704816785191D-01  .306500000000D+03  .165597850190D+01  .233045421563D-08
     -.158220876249D-09  .000000000000D+00  .810000000000D+03  .000000000000D+00
      .200000000000D+01  .000000000000D+00 -.499999985859D-09 -.960000000000D-08
      .475350000000D+06  .000000000000D+00
C20 2021 07 16 12 00 00 -.843527493998D-03  .107549524841D-10  .000000000000D+00
      .100000000000D+01 -.729218750000D+02  .383980280034D-08  .143275329657D+01
     -.351108610630D-05  .808809651062D-03  .599259510636D-05  .528262165642D+04
      .475200000000D+06 -.125728547573D-07 -.289918202959D+01  .108499079943D-06
      .966805753032D+00  .242296875000D+03 -.564359622678D+00 -.692921720114D-08
     -.187507810453D-09  .000000000000D+00  .810000000000D+03  .000000000000D+00
      .200000000000D+01  .000000000000D+00  .230000001267D-07  .230000000000D-07
      .475200000000D+06  .100000000000D+01
C26 2021 07 16 12 00 00  .878002261743D-03 -.541255928965D-11  .000000000000D+00
      .100000000000D+01  .662656250000D+02  .418410285611D-08  .254834196856D+01
      .338582322001D-05  .651527196169D-03  .702450051904D-05  .528262221718D+04
      .475200000000D+06 -.526197254658D-07 -.818886991484D+00 -.144354999065D-07
      .950423541413D+00  .212328125000D+03  .168910440781D+00 -.703279294406D-08
      .321084803042D-09  .000000000000D+00  .810000000000D+03  .000000000000D+00
      .200000000000D+01  .000000000000D+00 -.489999996134D-08 -.490000000000D-08
      .475200000000D+06  .100000000000D+01
C19 2021 07 16 12 00 00  .911116483621D-03  .140785161307D-10  .000000000000D+00
      .100000000000D+01 -.689687500000D+02  .391909181733D-08  .113227201213D+01
     -.344263389707D-05  .864289468154D-03  .581471249461D-05  .528261787796D+04
      .475200000000D+06  .619329512119D-07 -.289980398043D+01  .544823706150D-07
      .966809322552D+00  .245734375000D+03 -.102199968454D+01 -.700422032532D-08
     -.188936441390D-09  .000000000000D+00  .810000000000D+03  .000000000000D+00
      .200000000000D+01  .000000000000D+00  .122000001213D-07  .122000000000D-07
      .475200000000D+06  .100000000000D+01
C39 2021 07 16 12 00 00  .324542634189D-04  .192734717075D-12  .000000000000D+00
      .100000000000D+01 -.628593750000D+02  .594667627436D-09 -.247681936531D+01
     -.224309042096D-05  .195543165319D-02  .295871868730D-04  .649345055389D+04
      .475200000000D+06  .400468707085D-07 -.199642351764D+01  .100582838058D-06
      .961172658231D+00 -.672312500000D+03 -.297623006857D+01 -.176685931107D-08
     -.178221709364D-09  .000000000000D+00  .810000000000D+03  .000000000000D+00
      .200000000000D+01  .000000000000D+00  .419999990342D-08  .420000000000D-08
      .475200000000D+06  .100000000000D+01
C30 2021 07 16 12 00 00  .474229920655D-03  .122124532709D-11  .000000000000D+00
      .100000000000D+01 -.518750000000D+01  .367122434980D-08  .233384378201D+01
     -.339932739735D-06  .453101121821D-03  .110170803964D-04  .528261928368D+04
      .475200000000D+06 -.270083546638D-07  .127126585280D+01 -.130385160446D-07
      .965101359843D+00  .137265625000D+03  .669043177500D+00 -.675028117631D-08
     -.155363614375D-09  .000000000000D+00  .810000000000D+03  .000000000000D+00
      .200000000000D+01  .000000000000D+00 -.979999992268D-08 -.980000000000D-08
      .475200000000D+06  .100000000000D+01
C13 2021 07 16 12 00 00  .338619574904D-03  .138786759862D-10  .000000000000D+00
      .100000000000D+01  .203218750000D+03  .118719230847D-08 -.976401685175D+00
      .620167702436D-05  .378042634111D-02  .102701596916D-04  .649361603165D+04
      .475200000000D+06  .138301402330D-06  .222098381127D+01  .931322574615D-09
      .100520647486D+01 -.539375000000D+02 -.262524425848D+01 -.231688222173D-08
      .629311927653D-09  .000000000000D+00  .810000000000D+03  .000000000000D+00
      .200000000000D+01  .000000000000D+00 -.969999991440D-08  .230000000000D-08
      .475200000000D+06  .000000000000D+00
C35 2021 07 16 12 00 00 -.184665317647D-03  .177715619998D-10  .000000000000D+00
      .100000000000D+01 -.103437500000D+02  .382301638683D-08  .949589190956D+00
     -.321306288242D-06  .669735367410D-03  .953581184149D-05  .528261873817D+04
      .475200000000D+06  .442378222942D-07  .127400148620D+01  .116415321827D-07
      .963300893897D+00  .168390625000D+03  .476975292118D+00 -.686492880898D-08
     -.122505102829D-09  .000000000000D+00  .810000000000D+03  .000000000000D+00
      .200000000000D+01  .000000000000D+00 -.280000000963D-08 -.280000000000D-08
      .475200000000D+06  .100000000000D+01
C24 2021 07 16 12 00 00 -.941883539781D-03 -.187494464399D-10  .000000000000D+00
      .100000000000D+01  .655312500000D+02  .422160441820D-08  .205021661584D+01
      .316696241498D-05  .387884909287D-03  .658491626382D-05  .528261847496D+04
      .475200000000D+06 -.260770320892D-07 -.794192723646D+00  .610016286373D-07
      .949100352491D+00  .218375000000D+03 -.691952117669D-01 -.711993943120D-08
      .286797660559D-09  .000000000000D+00  .810000000000D+03  .000000000000D+00
      .200000000000D+01  .000000000000D+00  .700000013509D-08  .700000000000D-08
      .475200000000D+06  .100000000000D+01
C16 2021 07 16 12 00 00 -.915150623769D-03  .224869012300D-10  .000000000000D+00
      .100000000000D+01 -.640625000000D+00  .567523639638D-09 -.303273937848D+01
     -.278931111097D-06  .377151987050D-02  .303704291582D-04  .649373531532D+04
      .475200000000D+06  .651925802231D-08 -.192730072031D+01  .982545316219D-07
      .960472559766D+00 -.697921875000D+03 -.240404427743D+01 -.174114395421D-08
     -.975040614355D-10  .000000000000D+00  .810000000000D+03  .000000000000D+00
      .200000000000D+01  .000000000000D+00 -.290000001790D-08  .410000000000D-08
      .475200000000D+06  .000000000000D+00
C60 2021 07 16 12 00 00 -.108929816633D-05 -.307309733216D-12  .000000000000D+00
      .100000000000D+01 -.579437500000D+03  .191472261303D-08  .142320815255D+01
     -.186660327017D-04  .438521150500D-03 -.104866921902D-04  .649345674133D+04
      .475200000000D+06  .763684511185D-07  .336571755793D+00 -.172294676304D-07
      .121021969599D+00  .326000000000D+03  .287470379671D+01 -.988255450521D-09
     -.225366530278D-09  .000000000000D+00  .810000000000D+03  .000000000000D+00
      .200000000000D+01  .000000000000D+00  .498000005678D-07  .498000000000D-07
      .475830000000D+06  .100000000000D+01
C32 2021 07 16 12 00 00 -.924873165786D-03 -.126298971281D-11  .000000000000D+00
      .100000000000D+01 -.742812500000D+02  .384551732409D-08  .265003530127D+01
     -.353530049324D-05  .521268462762D-03  .652298331261D-05  .528261943054D+04
      .475200000000D+06 -.502914190292D-07 -.290516896916D+01 -.298023223877D-07
      .965487802820D+00  .234593750000D+03 -.969639093269D+00 -.692921720114D-08
     -.251796202608D-09  .000000000000D+00  .810000000000D+03  .000000000000D+00
      .200000000000D+01  .000000000000D+00 -.929999988131D-08 -.930000000000D-08
      .475200000000D+06  .100000000000D+01
C09 2021 07 16 12 00 00  .369892921299D-03 -.288915558144D-10  .000000000000D+00
      .100000000000D+01 -.130156250000D+02  .717887045734D-09  .280069014387D+01
     -.384636223316D-06  .827421725262D-02  .306852161884D-04  .649373872375D+04
      .475200000000D+06  .141561031342D-06 -.187357506848D+01  .698491930962D-07
      .950044137997D+00 -.718328125000D+03 -.233216214743D+01 -.179328898340D-08
     -.332156692802D-10  .000000000000D+00  .810000000000D+03  .000000000000D+00
      .200000000000D+01  .000000000000D+00  .660000010200D-08  .340000000000D-08
      .475200000000D+06  .000000000000D+00
C29 2021 07 16 12 00 00  .420253607444D-03  .513900033638D-11  .000000000000D+00
      .100000000000D+01 -.187343750000D+02  .366729561473D-08  .558333201870D+00
     -.845640897751D-06  .343973399140D-03  .103153288364D-04  .528262596703D+04
      .475200000000D+06 -.251457095146D-07  .127073172385D+01  .181607902050D-07
      .965158185432D+00  .153734375000D+03  .163813581527D+01 -.680028325909D-08
     -.104290058385D-09  .000000000000D+00  .810000000000D+03  .000000000000D+00
      .200000000000D+01  .000000000000D+00 -.200000002670D-09 -.200000000000D-09
      .475200000000D+06  .100000000000D+01
C44 2021 07 16 12 00 00  .292223179713D-03  .191846538655D-10  .000000000000D+00
      .100000000000D+01 -.759375000000D+01  .382837375285D-08  .500245641810D-01
     -.298023223877D-06  .698345829733D-03  .924989581108D-05  .528262289047D+04
      .475200000000D+06 -.181607902050D-07  .127508769556D+01 -.405125319958D-07
      .960664579467D+00  .171671875000D+03  .580659148704D+00 -.686421449351D-08
     -.148934775160D-09  .000000000000D+00  .810000000000D+03  .000000000000D+00
      .200000000000D+01  .000000000000D+00 -.150000001309D-08 -.150000000000D-08
      .476610000000D+06  .100000000000D+01
C22 2021 07 16 12 00 00 -.948318862356D-03 -.126121335597D-12  .000000000000D+00
      .100000000000D+01 -.685937500000D+02  .392016329054D-08 -.591031049170D+00
     -.348687171936D-05  .656303949654D-03  .559538602829D-05  .528262022781D+04
      .475200000000D+06  .870786607265D-07 -.289761298558D+01 -.181607902050D-07
      .966096809764D+00  .252062500000D+03 -.901558259349D-01 -.699814864384D-08
     -.233938315898D-09  .000000000000D+00  .810000000000D+03  .000000000000D+00
      .200000000000D+01  .000000000000D+00  .165999995971D-07  .166000000000D-07
      .476730000000D+06  .100000000000D+01
